NORAD_CAT_ID,OBJECT_NAME,OBJECT_TYPE,EPOCH,MEAN_MOTION,ECCENTRICITY,INCLINATION,RA_OF_ASC_NODE,ARG_OF_PERICENTER,MEAN_ANOMALY,BSTAR,MEAN_MOTION_DOT,MEAN_MOTION_DDOT,TLE_LINE0,TLE_LINE1,TLE_LINE2,SEMIMAJOR_AXIS,PERIOD,APOGEE,PERIGEE,DECAYED
55435.0,STARLINK-5626,PAYLOAD,2024-01-15 03:42:58,14.98331591,0.0002333,70.0,282.5208,265.215,94.8743,0.00037468,4.381e-05,0.0,0 STARLINK-5626,1 55435U 23014AW  24015.15484029  .00004381  00000-0  37468-3 0  9994,2 55435  70.0000 282.5208 0002333 265.2150  94.8743 14.98331591 52613,6950.188,96.107,573.674,570.431,0.0
55435.0,STARLINK-5626,PAYLOAD,2024-01-15 18:08:11,14.98328859,0.0001757,70.0026,281.0092,301.3207,58.778,0.00012427,1.39e-05,0.0,0 STARLINK-5626,1 55435U 23014AW  24015.75568862  .00001390  00000-0  12427-3 0  9993,2 55435  70.0026 281.0092 0001757 301.3207  58.7780 14.98328859 52703,6950.196,96.107,573.283,570.84,0.0
55435.0,STARLINK-5626,PAYLOAD,2024-01-15 19:44:19,14.98326543,0.0002452,69.9998,280.8374,272.5108,87.577,-4.4942e-06,-1.47e-06,0.0,0 STARLINK-5626,1 55435U 23014AW  24015.82245133 -.00000147  00000-0 -44942-5 0  9994,2 55435  69.9998 280.8374 0002452 272.5108  87.5770 14.98326543 53652,6950.204,96.107,573.773,570.364,0.0
55435.0,STARLINK-5626,PAYLOAD,2024-01-16 03:45:00,14.98327386,0.0002554,69.9995,279.9951,269.397,90.6896,9.0102e-06,1.5e-07,0.0,0 STARLINK-5626,1 55435U 23014AW  24016.15625092  .00000015  00000-0  90102-5 0  9998,2 55435  69.9995 279.9951 0002554 269.3970  90.6896 14.98327386 52764,6950.201,96.107,573.841,570.291,0.0
55435.0,STARLINK-5626,PAYLOAD,2024-01-16 21:22:28,14.98334662,0.0002611,69.9991,278.1428,264.4781,95.608,4.397e-06,-4e-07,0.0,0 STARLINK-5626,1 55435U 23014AW  24016.89060564 -.00000040  00000-0  43970-5 0  9996,2 55435  69.9991 278.1428 0002611 264.4781  95.6080 14.98334662 53812,6950.178,96.107,573.858,570.229,0.0
55435.0,STARLINK-5626,PAYLOAD,2024-01-17 03:47:00,14.9834162,0.0002519,69.9994,277.4704,265.4047,94.6824,5.5313e-05,5.67e-06,0.0,0 STARLINK-5626,1 55435U 23014AW  24017.15763925  .00000567  00000-0  55313-4 0  9993,2 55435  69.9994 277.4704 0002519 265.4047  94.6824 14.98341620 52914,6950.157,96.106,573.773,570.271,0.0
55435.0,STARLINK-5626,PAYLOAD,2024-01-17 19:48:21,14.98322545,0.0002198,70.0007,275.789,238.2233,121.8713,0.00013121,1.473e-05,0.0,0 STARLINK-5626,1 55435U 23014AW  24017.82524987  .00001473  00000-0  13121-3 0  9997,2 55435  70.0007 275.7890 0002198 238.2233 121.8713 14.98322545 53014,6950.216,96.107,573.609,570.553,0.0
55435.0,STARLINK-5626,PAYLOAD,2024-01-17 21:24:29,14.98321819,0.0002405,70.0002,275.6207,241.9737,118.1179,8.6234e-05,9.36e-06,0.0,0 STARLINK-5626,1 55435U 23014AW  24017.89201147  .00000936  00000-0  86234-4 0  9993,2 55435  70.0002 275.6207 0002405 241.9737 118.1179 14.98321819 53963,6950.218,96.108,573.755,570.412,0.0
55435.0,STARLINK-5626,PAYLOAD,2024-01-18 02:12:54,14.98320262,0.0002341,70.0001,275.1155,250.5535,109.5372,5.963e-05,6.18e-06,0.0,0 STARLINK-5626,1 55435U 23014AW  24018.09229472  .00000618  00000-0  59630-4 0  9994,2 55435  70.0001 275.1155 0002341 250.5535 109.5372 14.98320262 53993,6950.223,96.108,573.715,570.461,0.0
55435.0,STARLINK-5626,PAYLOAD,2024-01-18 19:50:22,14.98335881,0.0002699,69.9989,273.2627,260.7212,99.3642,3.3239e-05,3.04e-06,0.0,0 STARLINK-5626,1 55435U 23014AW  24018.82664599  .00000304  00000-0  33239-4 0  9997,2 55435  69.9989 273.2627 0002699 260.7212  99.3642 14.98335881 53167,6950.175,96.107,573.916,570.164,0.0
55435.0,STARLINK-5626,PAYLOAD,2024-01-18 21:26:30,14.98335232,0.0002691,69.9991,273.0946,258.7909,101.2948,3.1466e-05,2.83e-06,0.0,0 STARLINK-5626,1 55435U 23014AW  24018.89340620  .00000283  00000-0  31466-4 0  9996,2 55435  69.9991 273.0946 0002691 258.7909 101.2948 14.98335232 54112,6950.177,96.107,573.912,570.171,0.0
55435.0,STARLINK-5626,PAYLOAD,2024-01-19 02:14:54,14.98336754,0.0002556,69.9993,272.5887,263.4537,96.6332,9.1095e-05,9.94e-06,0.0,0 STARLINK-5626,1 55435U 23014AW  24019.09368384  .00000994  00000-0  91095-4 0  9999,2 55435  69.9993 272.5887 0002556 263.4537  96.6332 14.98336754 54149,6950.172,96.107,573.813,570.261,0.0
55435.0,STARLINK-5626,PAYLOAD,2024-01-19 19:52:23,14.98329499,0.0002622,69.999,270.7367,266.459,93.6269,0.00010599,1.172e-05,0.0,0 STARLINK-5626,1 55435U 23014AW  24019.82804743  .00001172  00000-0  10599-3 0  9992,2 55435  69.9990 270.7367 0002622 266.4590  93.6269 14.98329499 53317,6950.194,96.107,573.882,570.237,0.0
55435.0,STARLINK-5626,PAYLOAD,2024-01-19 23:04:39,14.98329756,0.000262,69.9989,270.3999,266.2216,93.8644,0.00010569,1.168e-05,0.0,0 STARLINK-5626,1 55435U 23014AW  24019.96156731  .00001168  00000-0  10569-3 0  9996,2 55435  69.9989 270.3999 0002620 266.2216  93.8644 14.98329756 54274,6950.194,96.107,573.88,570.238,0.0
55435.0,STARLINK-5626,PAYLOAD,2024-01-20 02:16:55,14.98331976,0.00026,69.999,270.0634,266.0572,94.029,0.00012807,1.436e-05,0.0,0 STARLINK-5626,1 55435U 23014AW  24020.09508539  .00001436  00000-0  12807-3 0  9994,2 55435  69.9990 270.0634 0002600 266.0572  94.0290 14.98331976 54299,6950.187,96.107,573.859,570.245,0.0
55435.0,STARLINK-5626,PAYLOAD,2024-01-20 19:54:24,14.98332394,0.000254,69.9989,268.2114,265.6392,94.4477,2.0882e-05,1.56e-06,0.0,0 STARLINK-5626,1 55435U 23014AW  24020.82944685  .00000156  00000-0  20882-4 0  9992,2 55435  69.9989 268.2114 0002540 265.6392  94.4477 14.98332394 53461,6950.185,96.107,573.816,570.285,0.0
55435.0,STARLINK-5626,PAYLOAD,2024-01-20 23:06:40,14.98332067,0.0002548,69.9989,267.8748,265.8937,94.193,1.2258e-05,5.3e-07,0.0,0 STARLINK-5626,1 55435U 23014AW  24020.96296683  .00000053  00000-0  12258-4 0  9999,2 55435  69.9989 267.8748 0002548 265.8937  94.1930 14.98332067 54429,6950.186,96.107,573.822,570.281,0.0
55435.0,STARLINK-5626,PAYLOAD,2024-01-21 02:18:56,14.98334069,0.000257,69.9989,267.5379,268.936,91.1505,3.0984e-05,2.77e-06,0.0,0 STARLINK-5626,1 55435U 23014AW  24021.09648484  .00000277  00000-0  30984-4 0  9998,2 55435  69.9989 267.5379 0002570 268.9360  91.1505 14.98334069 54446,6950.18,96.107,573.832,570.259,0.0
55435.0,STARLINK-5626,PAYLOAD,2024-01-21 19:56:24,14.98333126,0.0002587,69.9988,265.686,268.9955,91.0907,4.9986e-05,5.04e-06,0.0,0 STARLINK-5626,1 55435U 23014AW  24021.83084391  .00000504  00000-0  49986-4 0  9996,2 55435  69.9988 265.6860 0002587 268.9955  91.0907 14.98333126 53613,6950.183,96.107,573.846,570.25,0.0
55435.0,STARLINK-5626,PAYLOAD,2024-01-21 21:32:32,14.98332499,0.0002594,69.9987,265.5177,268.9327,91.1535,3.9677e-05,3.81e-06,0.0,0 STARLINK-5626,1 55435U 23014AW  24021.89760414  .00000381  00000-0  39677-4 0  9998,2 55435  69.9987 265.5177 0002594 268.9327  91.1535 14.98332499 54568,6950.185,96.107,573.853,570.247,0.0
55435.0,STARLINK-5626,PAYLOAD,2024-01-22 02:20:56,14.98335279,0.0002571,69.9988,265.013,268.9758,91.1107,6.9269e-05,7.34e-06,0.0,0 STARLINK-5626,1 55435U 23014AW  24022.09788123  .00000734  00000-0  69269-4 0  9990,2 55435  69.9988 265.0130 0002571 268.9758  91.1107 14.98335279 54593,6950.177,96.107,573.828,570.255,0.0
55435.0,STARLINK-5626,PAYLOAD,2024-01-22 19:58:26,14.9832849,0.0002517,69.999,263.1614,269.6534,90.4337,3.8731e-05,3.69e-06,0.0,0 STARLINK-5626,1 55435U 23014AW  24022.83224636  .00000369  00000-0  38731-4 0  9990,2 55435  69.9990 263.1614 0002517 269.6534  90.4337 14.98328490 53764,6950.198,96.107,573.812,570.313,0.0
55435.0,STARLINK-5626,PAYLOAD,2024-01-22 21:34:33,14.9834448,0.0002842,69.9989,262.9927,273.3629,86.7205,-0.0002726,-3.345e-05,0.0,0 STARLINK-5626,1 55435U 23014AW  24022.89900346 -.00003345  00000-0 -27260-3 0  9998,2 55435  69.9989 262.9927 0002842 273.3629  86.7205 14.98344480 54719,6950.148,96.106,573.988,570.038,0.0
55435.0,STARLINK-5626,PAYLOAD,2024-01-23 00:46:50,14.98327816,0.0002492,69.9989,262.6558,269.2791,90.8083,6.3778e-05,6.68e-06,0.0,0 STARLINK-5626,1 55435U 23014AW  24023.03252583  .00000668  00000-0  63778-4 0  9996,2 55435  69.9989 262.6558 0002492 269.2791  90.8083 14.98327816 54737,6950.2,96.107,573.797,570.333,0.0
55435.0,STARLINK-5626,PAYLOAD,2024-01-23 16:48:10,14.9833529,0.000251,69.9989,260.975,250.494,109.5948,6.9439e-05,7.36e-06,0.0,0 STARLINK-5626,1 55435U 23014AW  24023.70011964  .00000736  00000-0  69439-4 0  9992,2 55435  69.9989 260.9750 0002510 250.4940 109.5948 14.98335290 53890,6950.177,96.107,573.786,570.297,0.0
55435.0,STARLINK-5626,PAYLOAD,2024-01-23 21:36:34,14.98334689,0.0002519,69.999,260.4698,250.4452,109.6435,5.7328e-05,5.91e-06,0.0,0 STARLINK-5626,1 55435U 23014AW  24023.90039918  .00000591  00000-0  57328-4 0  9996,2 55435  69.9990 260.4698 0002519 250.4452 109.6435 14.98334689 54866,6950.178,96.107,573.794,570.293,0.0
55435.0,STARLINK-5626,PAYLOAD,2024-01-24 00:48:50,14.9833307,0.0002529,69.9989,260.1332,254.8195,105.2684,3.3454e-05,3.06e-06,0.0,0 STARLINK-5626,1 55435U 23014AW  24024.03392079  .00000306  00000-0  33454-4 0  9999,2 55435  69.9989 260.1332 0002529 254.8195 105.2684 14.98333070 54882,6950.183,96.107,573.806,570.291,0.0
55435.0,STARLINK-5626,PAYLOAD,2024-01-24 20:02:27,14.98330716,0.0002634,69.9985,258.1123,260.0809,100.0053,4.3365e-05,4.24e-06,0.0,0 STARLINK-5626,1 55435U 23014AW  24024.83504221  .00000424  00000-0  43365-4 0  9994,2 55435  69.9985 258.1123 0002634 260.0809 100.0053 14.98330716 54068,6950.191,96.107,573.886,570.225,0.0
55435.0,STARLINK-5626,PAYLOAD,2024-01-24 21:38:35,14.9833013,0.0002636,69.9985,257.9441,260.4193,99.6668,3.3785e-05,3.1e-06,0.0,0 STARLINK-5626,1 55435U 23014AW  24024.90180254  .00000310  00000-0  33785-4 0  9997,2 55435  69.9985 257.9441 0002636 260.4193  99.6668 14.98330130 55011,6950.192,96.107,573.89,570.225,0.0
55435.0,STARLINK-5626,PAYLOAD,2024-01-25 00:50:51,14.98329721,0.0002651,69.9985,257.6074,261.7755,98.3103,2.5721e-05,2.14e-06,0.0,0 STARLINK-5626,1 55435U 23014AW  24025.03532303  .00000214  00000-0  25721-4 0  9992,2 55435  69.9985 257.6074 0002651 261.7755  98.3103 14.98329721 55031,6950.194,96.107,573.901,570.216,0.0
